{"fetched_at":"2026-07-14T06:34:20.123Z","source":"https://celestrak.org/NORAD/elements/gp.php?GROUP=kuiper&FORMAT=JSON","constellation":"kuiper","records":[{"OBJECT_NAME":"KUIPER-00191","OBJECT_ID":"2025-301L","EPOCH":"2026-07-13T10:12:22.204800","CLASSIFICATION_TYPE":"U","MEAN_MOTION":14.79940297,"ECCENTRICITY":0.00003024,"INCLINATION":51.9002,"RA_OF_ASC_NODE":237.1467,"ARG_OF_PERICENTER":82.1951,"MEAN_ANOMALY":277.9046,"EPHEMERIS_TYPE":0,"NORAD_CAT_ID":67143,"ELEMENT_SET_NO":999,"REV_AT_EPOCH":3227,"BSTAR":0.0001848483,"MEAN_MOTION_DOT":0.00001189,"MEAN_MOTION_DDOT":0},{"OBJECT_NAME":"KUIPER-00196","OBJECT_ID":"2025-301M","EPOCH":"2026-07-13T10:17:23.288928","CLASSIFICATION_TYPE":"U","MEAN_MOTION":14.76345342,"ECCENTRICITY":0.00011398,"INCLINATION":51.8976,"RA_OF_ASC_NODE":193.4681,"ARG_OF_PERICENTER":347.6537,"MEAN_ANOMALY":12.4395,"EPHEMERIS_TYPE":0,"NORAD_CAT_ID":67144,"ELEMENT_SET_NO":999,"REV_AT_EPOCH":3285,"BSTAR":0.00016589132,"MEAN_MOTION_DOT":0.00000948,"MEAN_MOTION_DDOT":0},{"OBJECT_NAME":"KUIPER-00204","OBJECT_ID":"2025-301N","EPOCH":"2026-07-13T13:20:57.280128","CLASSIFICATION_TYPE":"U","MEAN_MOTION":14.7992811,"ECCENTRICITY":0.0000277,"INCLINATION":51.9009,"RA_OF_ASC_NODE":209.0512,"ARG_OF_PERICENTER":15.3511,"MEAN_ANOMALY":344.746,"EPHEMERIS_TYPE":0,"NORAD_CAT_ID":67145,"ELEMENT_SET_NO":999,"REV_AT_EPOCH":3276,"BSTAR":0.00018496,"MEAN_MOTION_DOT":0.00001189,"MEAN_MOTION_DDOT":0},{"OBJECT_NAME":"KUIPER-00210","OBJECT_ID":"2025-301P","EPOCH":"2026-07-13T11:01:00.936768","CLASSIFICATION_TYPE":"U","MEAN_MOTION":14.79933581,"ECCENTRICITY":0.00005025,"INCLINATION":51.8998,"RA_OF_ASC_NODE":236.9506,"ARG_OF_PERICENTER":74.9484,"MEAN_ANOMALY":285.1534,"EPHEMERIS_TYPE":0,"NORAD_CAT_ID":67146,"ELEMENT_SET_NO":999,"REV_AT_EPOCH":3242,"BSTAR":0.00020662822,"MEAN_MOTION_DOT":0.00001354,"MEAN_MOTION_DDOT":0},{"OBJECT_NAME":"KUIPER-00221","OBJECT_ID":"2025-301Q","EPOCH":"2026-07-13T11:37:58.169856","CLASSIFICATION_TYPE":"U","MEAN_MOTION":14.79928377,"ECCENTRICITY":0.00004684,"INCLINATION":51.9017,"RA_OF_ASC_NODE":244.3614,"ARG_OF_PERICENTER":76.4413,"MEAN_ANOMALY":283.6602,"EPHEMERIS_TYPE":0,"NORAD_CAT_ID":67147,"ELEMENT_SET_NO":999,"REV_AT_EPOCH":3215,"BSTAR":0.000093050715,"MEAN_MOTION_DOT":0.00000488,"MEAN_MOTION_DDOT":0},{"OBJECT_NAME":"KUIPER-00232","OBJECT_ID":"2025-301R","EPOCH":"2026-07-13T14:27:06.992064","CLASSIFICATION_TYPE":"U","MEAN_MOTION":14.79941427,"ECCENTRICITY":0.0000314,"INCLINATION":51.8982,"RA_OF_ASC_NODE":228.8656,"ARG_OF_PERICENTER":76.4487,"MEAN_ANOMALY":283.651,"EPHEMERIS_TYPE":0,"NORAD_CAT_ID":67148,"ELEMENT_SET_NO":999,"REV_AT_EPOCH":3237,"BSTAR":0.00018716,"MEAN_MOTION_DOT":0.00001206,"MEAN_MOTION_DDOT":0},{"OBJECT_NAME":"KUIPER-00241","OBJECT_ID":"2025-301S","EPOCH":"2026-07-13T20:00:01.999008","CLASSIFICATION_TYPE":"U","MEAN_MOTION":14.79935075,"ECCENTRICITY":0.0000407,"INCLINATION":51.9011,"RA_OF_ASC_NODE":237.8425,"ARG_OF_PERICENTER":82.9023,"MEAN_ANOMALY":307.2738,"EPHEMERIS_TYPE":0,"NORAD_CAT_ID":67149,"ELEMENT_SET_NO":999,"REV_AT_EPOCH":408,"BSTAR":-0.0038094,"MEAN_MOTION_DOT":-0.00029137,"MEAN_MOTION_DDOT":0},{"OBJECT_NAME":"KUIPER-00245","OBJECT_ID":"2025-301T","EPOCH":"2026-07-13T11:34:05.149056","CLASSIFICATION_TYPE":"U","MEAN_MOTION":14.79921281,"ECCENTRICITY":0.000043,"INCLINATION":51.9025,"RA_OF_ASC_NODE":246.9066,"ARG_OF_PERICENTER":98.5429,"MEAN_ANOMALY":261.5582,"EPHEMERIS_TYPE":0,"NORAD_CAT_ID":67150,"ELEMENT_SET_NO":999,"REV_AT_EPOCH":3211,"BSTAR":0.00020140381,"MEAN_MOTION_DOT":0.00001314,"MEAN_MOTION_DDOT":0},{"OBJECT_NAME":"KUIPER-00246","OBJECT_ID":"2025-301U","EPOCH":"2026-07-13T14:23:15.948960","CLASSIFICATION_TYPE":"U","MEAN_MOTION":14.79933434,"ECCENTRICITY":0.0000493,"INCLINATION":51.8995,"RA_OF_ASC_NODE":231.3394,"ARG_OF_PERICENTER":94.8671,"MEAN_ANOMALY":265.2348,"EPHEMERIS_TYPE":0,"NORAD_CAT_ID":67151,"ELEMENT_SET_NO":999,"REV_AT_EPOCH":3236,"BSTAR":0.0001825,"MEAN_MOTION_DOT":0.0000117,"MEAN_MOTION_DDOT":0},{"OBJECT_NAME":"KUIPER-00247","OBJECT_ID":"2025-301V","EPOCH":"2026-07-13T03:18:06.139584","CLASSIFICATION_TYPE":"U","MEAN_MOTION":14.79926772,"ECCENTRICITY":0.00005394,"INCLINATION":51.8953,"RA_OF_ASC_NODE":223.3539,"ARG_OF_PERICENTER":89.9857,"MEAN_ANOMALY":270.1167,"EPHEMERIS_TYPE":0,"NORAD_CAT_ID":67152,"ELEMENT_SET_NO":999,"REV_AT_EPOCH":3241,"BSTAR":0.00019398497,"MEAN_MOTION_DOT":0.00001258,"MEAN_MOTION_DDOT":0},{"OBJECT_NAME":"KUIPER-00248","OBJECT_ID":"2025-301W","EPOCH":"2026-07-12T09:55:31.215936","CLASSIFICATION_TYPE":"U","MEAN_MOTION":14.79984947,"ECCENTRICITY":0.00008142,"INCLINATION":51.8967,"RA_OF_ASC_NODE":209.1835,"ARG_OF_PERICENTER":73.8732,"MEAN_ANOMALY":286.232,"EPHEMERIS_TYPE":0,"NORAD_CAT_ID":67153,"ELEMENT_SET_NO":999,"REV_AT_EPOCH":3271,"BSTAR":0.00065144844,"MEAN_MOTION_DOT":0.00004755,"MEAN_MOTION_DDOT":0},{"OBJECT_NAME":"KUIPER-00249","OBJECT_ID":"2025-301X","EPOCH":"2026-07-13T09:50:56.216832","CLASSIFICATION_TYPE":"U","MEAN_MOTION":14.79938052,"ECCENTRICITY":0.00004071,"INCLINATION":51.8989,"RA_OF_ASC_NODE":219.7058,"ARG_OF_PERICENTER":74.3589,"MEAN_ANOMALY":285.7418,"EPHEMERIS_TYPE":0,"NORAD_CAT_ID":67154,"ELEMENT_SET_NO":999,"REV_AT_EPOCH":3248,"BSTAR":0.00016859099,"MEAN_MOTION_DOT":0.00001065,"MEAN_MOTION_DDOT":0},{"OBJECT_NAME":"KUIPER-00250","OBJECT_ID":"2025-301Y","EPOCH":"2026-07-13T11:53:29.462496","CLASSIFICATION_TYPE":"U","MEAN_MOTION":14.79924421,"ECCENTRICITY":0.00004999,"INCLINATION":51.8982,"RA_OF_ASC_NODE":234.2834,"ARG_OF_PERICENTER":94.2568,"MEAN_ANOMALY":265.8451,"EPHEMERIS_TYPE":0,"NORAD_CAT_ID":67155,"ELEMENT_SET_NO":999,"REV_AT_EPOCH":3232,"BSTAR":0.000052545923,"MEAN_MOTION_DOT":0.00000179,"MEAN_MOTION_DDOT":0},{"OBJECT_NAME":"KUIPER-00251","OBJECT_ID":"2025-301Z","EPOCH":"2026-07-13T10:35:43.136736","CLASSIFICATION_TYPE":"U","MEAN_MOTION":14.79927428,"ECCENTRICITY":0.00003023,"INCLINATION":51.8999,"RA_OF_ASC_NODE":222.0896,"ARG_OF_PERICENTER":52.0719,"MEAN_ANOMALY":308.0271,"EPHEMERIS_TYPE":0,"NORAD_CAT_ID":67156,"ELEMENT_SET_NO":999,"REV_AT_EPOCH":3264,"BSTAR":0.00017297069,"MEAN_MOTION_DOT":0.00001098,"MEAN_MOTION_DDOT":0},{"OBJECT_NAME":"KUIPER-00252","OBJECT_ID":"2025-301AA","EPOCH":"2026-07-12T10:13:10.384032","CLASSIFICATION_TYPE":"U","MEAN_MOTION":14.79926164,"ECCENTRICITY":0.00005114,"INCLINATION":51.8987,"RA_OF_ASC_NODE":229.032,"ARG_OF_PERICENTER":95.0951,"MEAN_ANOMALY":265.007,"EPHEMERIS_TYPE":0,"NORAD_CAT_ID":67157,"ELEMENT_SET_NO":999,"REV_AT_EPOCH":3227,"BSTAR":0.000093583702,"MEAN_MOTION_DOT":0.00000492,"MEAN_MOTION_DDOT":0},{"OBJECT_NAME":"KUIPER-00261","OBJECT_ID":"2025-301AB","EPOCH":"2026-07-13T07:50:24.556704","CLASSIFICATION_TYPE":"U","MEAN_MOTION":14.79936667,"ECCENTRICITY":0.00004388,"INCLINATION":51.9011,"RA_OF_ASC_NODE":235.1014,"ARG_OF_PERICENTER":92.1981,"MEAN_ANOMALY":267.9032,"EPHEMERIS_TYPE":0,"NORAD_CAT_ID":67158,"ELEMENT_SET_NO":999,"REV_AT_EPOCH":3226,"BSTAR":0.00018877559,"MEAN_MOTION_DOT":0.00001218,"MEAN_MOTION_DDOT":0}]}
